{
  "type": "FeatureCollection",
  "features": [
    {
      "type": "Feature",
      "properties": {
        "norad_id": 28890,
        "name": "BEIJING 1",
        "group": "dmc",
        "lat": -54.353675077418984,
        "lon": 125.68541128116318,
        "alt_km": 699.6460818074593,
        "timestamp": "2025-12-12T11:38:31.082826+00:00",
        "meta_object_name": "BEIJING 1",
        "meta_object_id": "2005-043A",
        "meta_epoch": "2025-12-12T05:19:49.484064",
        "meta_mean_motion": 14.63366059,
        "meta_eccentricity": 0.0015261,
        "meta_inclination": 98.2653,
        "meta_ra_of_asc_node": 113.7274,
        "meta_arg_of_pericenter": 142.6372,
        "meta_mean_anomaly": 217.5894,
        "meta_ephemeris_type": 0,
        "meta_classification_type": "U",
        "meta_norad_cat_id": 28890,
        "meta_element_set_no": 999,
        "meta_rev_at_epoch": 7330,
        "meta_bstar": 0.00017294,
        "meta_mean_motion_dot": 8.46e-06,
        "meta_mean_motion_ddot": 0,
        "tle_line1": "1 28890U 05043A   25346.22210051  .00000846  00000+0  17294-3 0  9995",
        "tle_line2": "2 28890  98.2653 113.7274 0015261 142.6372 217.5894 14.63366059 73309"
      },
      "geometry": {
        "type": "Point",
        "coordinates": [
          125.68541128116318,
          -54.353675077418984
        ]
      }
    },
    {
      "type": "Feature",
      "properties": {
        "norad_id": 33320,
        "name": "HUANJING 1A (HJ-1A)",
        "group": "dmc",
        "lat": -45.90316427656099,
        "lon": -17.227390220601556,
        "alt_km": 623.3327405119098,
        "timestamp": "2025-12-12T11:38:31.082852+00:00",
        "meta_object_name": "HUANJING 1A (HJ-1A)",
        "meta_object_id": "2008-041A",
        "meta_epoch": "2025-12-12T05:22:29.621280",
        "meta_mean_motion": 14.83393215,
        "meta_eccentricity": 0.0020197,
        "meta_inclination": 97.6545,
        "meta_ra_of_asc_node": 334.5442,
        "meta_arg_of_pericenter": 36.1436,
        "meta_mean_anomaly": 324.1139,
        "meta_ephemeris_type": 0,
        "meta_classification_type": "U",
        "meta_norad_cat_id": 33320,
        "meta_element_set_no": 999,
        "meta_rev_at_epoch": 93068,
        "meta_bstar": 0.00032171,
        "meta_mean_motion_dot": 2.597e-05,
        "meta_mean_motion_ddot": 0,
        "tle_line1": "1 33320U 08041A   25346.22395395  .00002597  00000+0  32171-3 0  9991",
        "tle_line2": "2 33320  97.6545 334.5442 0020197  36.1436 324.1139 14.83393215930684"
      },
      "geometry": {
        "type": "Point",
        "coordinates": [
          -17.227390220601556,
          -45.90316427656099
        ]
      }
    },
    {
      "type": "Feature",
      "properties": {
        "norad_id": 33321,
        "name": "HUANJING 1B (HJ-1B)",
        "group": "dmc",
        "lat": 3.9089689654214097,
        "lon": 159.01736408508972,
        "alt_km": 627.2519591192004,
        "timestamp": "2025-12-12T11:38:31.082867+00:00",
        "meta_object_name": "HUANJING 1B (HJ-1B)",
        "meta_object_id": "2008-041B",
        "meta_epoch": "2025-12-12T05:59:46.664160",
        "meta_mean_motion": 14.82820234,
        "meta_eccentricity": 0.0038186,
        "meta_inclination": 97.6403,
        "meta_ra_of_asc_node": 338.267,
        "meta_arg_of_pericenter": 77.2093,
        "meta_mean_anomaly": 283.3384,
        "meta_ephemeris_type": 0,
        "meta_classification_type": "U",
        "meta_norad_cat_id": 33321,
        "meta_element_set_no": 999,
        "meta_rev_at_epoch": 93070,
        "meta_bstar": 0.00033419,
        "meta_mean_motion_dot": 2.687e-05,
        "meta_mean_motion_ddot": 0,
        "tle_line1": "1 33321U 08041B   25346.24984565  .00002687  00000+0  33419-3 0  9993",
        "tle_line2": "2 33321  97.6403 338.2670 0038186  77.2093 283.3384 14.82820234930700"
      },
      "geometry": {
        "type": "Point",
        "coordinates": [
          159.01736408508972,
          3.9089689654214097
        ]
      }
    },
    {
      "type": "Feature",
      "properties": {
        "norad_id": 33446,
        "name": "YAOGAN-4",
        "group": "dmc",
        "lat": 81.65545991529959,
        "lon": -155.00617344228053,
        "alt_km": 618.6027068551684,
        "timestamp": "2025-12-12T11:38:31.082879+00:00",
        "meta_object_name": "YAOGAN-4",
        "meta_object_id": "2008-061A",
        "meta_epoch": "2025-12-11T19:03:10.073376",
        "meta_mean_motion": 14.82677773,
        "meta_eccentricity": 0.00136364,
        "meta_inclination": 97.9179,
        "meta_ra_of_asc_node": 275.9025,
        "meta_arg_of_pericenter": 326.6885,
        "meta_mean_anomaly": 33.3469,
        "meta_ephemeris_type": 0,
        "meta_classification_type": "U",
        "meta_norad_cat_id": 33446,
        "meta_element_set_no": 999,
        "meta_rev_at_epoch": 91789,
        "meta_bstar": 0.00029431307,
        "meta_mean_motion_dot": 2.323e-05,
        "meta_mean_motion_ddot": 0,
        "tle_line1": "1 33446U 08061A   25345.79386659  .00002323  00000+0  29431-3 0  9998",
        "tle_line2": "2 33446  97.9179 275.9025 0013636 326.6885  33.3469 14.82677773917895"
      },
      "geometry": {
        "type": "Point",
        "coordinates": [
          -155.00617344228053,
          81.65545991529959
        ]
      }
    },
    {
      "type": "Feature",
      "properties": {
        "norad_id": 35681,
        "name": "DEIMOS-1",
        "group": "dmc",
        "lat": -43.76165697700491,
        "lon": -40.359662946670944,
        "alt_km": 653.5628047580558,
        "timestamp": "2025-12-12T11:38:31.082890+00:00",
        "meta_object_name": "DEIMOS-1",
        "meta_object_id": "2009-041A",
        "meta_epoch": "2025-12-12T04:06:58.405248",
        "meta_mean_motion": 14.74952034,
        "meta_eccentricity": 0.0002726,
        "meta_inclination": 97.7151,
        "meta_ra_of_asc_node": 146.8011,
        "meta_arg_of_pericenter": 80.473,
        "meta_mean_anomaly": 279.6787,
        "meta_ephemeris_type": 0,
        "meta_classification_type": "U",
        "meta_norad_cat_id": 35681,
        "meta_element_set_no": 999,
        "meta_rev_at_epoch": 87931,
        "meta_bstar": 0.00020417,
        "meta_mean_motion_dot": 1.324e-05,
        "meta_mean_motion_ddot": 0,
        "tle_line1": "1 35681U 09041A   25346.17150932  .00001324  00000+0  20417-3 0  9991",
        "tle_line2": "2 35681  97.7151 146.8011 0002726  80.4730 279.6787 14.74952034879318"
      },
      "geometry": {
        "type": "Point",
        "coordinates": [
          -40.359662946670944,
          -43.76165697700491
        ]
      }
    },
    {
      "type": "Feature",
      "properties": {
        "norad_id": 35683,
        "name": "UK-DMC 2",
        "group": "dmc",
        "lat": -57.80859947571462,
        "lon": -71.2752841574919,
        "alt_km": 651.1117160749718,
        "timestamp": "2025-12-12T11:38:31.082901+00:00",
        "meta_object_name": "UK-DMC 2",
        "meta_object_id": "2009-041C",
        "meta_epoch": "2025-12-12T04:03:15.343776",
        "meta_mean_motion": 14.75620359,
        "meta_eccentricity": 0.0001462,
        "meta_inclination": 97.8562,
        "meta_ra_of_asc_node": 121.0874,
        "meta_arg_of_pericenter": 96.2288,
        "meta_mean_anomaly": 263.9088,
        "meta_ephemeris_type": 0,
        "meta_classification_type": "U",
        "meta_norad_cat_id": 35683,
        "meta_element_set_no": 999,
        "meta_rev_at_epoch": 87898,
        "meta_bstar": 0.00025895,
        "meta_mean_motion_dot": 1.718e-05,
        "meta_mean_motion_ddot": 0,
        "tle_line1": "1 35683U 09041C   25346.16892759  .00001718  00000+0  25895-3 0  9994",
        "tle_line2": "2 35683  97.8562 121.0874 0001462  96.2288 263.9088 14.75620359878983"
      },
      "geometry": {
        "type": "Point",
        "coordinates": [
          -71.2752841574919,
          -57.80859947571462
        ]
      }
    },
    {
      "type": "Feature",
      "properties": {
        "norad_id": 40715,
        "name": "DMC3-FM1",
        "group": "dmc",
        "lat": -78.54185127823165,
        "lon": -104.64776876850492,
        "alt_km": 617.1945354253885,
        "timestamp": "2025-12-12T11:38:31.082911+00:00",
        "meta_object_name": "DMC3-FM1",
        "meta_object_id": "2015-032A",
        "meta_epoch": "2025-12-12T05:32:28.442400",
        "meta_mean_motion": 14.85438097,
        "meta_eccentricity": 0.0004739,
        "meta_inclination": 97.669,
        "meta_ra_of_asc_node": 213.4419,
        "meta_arg_of_pericenter": 323.8597,
        "meta_mean_anomaly": 36.2298,
        "meta_ephemeris_type": 0,
        "meta_classification_type": "U",
        "meta_norad_cat_id": 40715,
        "meta_element_set_no": 999,
        "meta_rev_at_epoch": 56215,
        "meta_bstar": 0.00011807,
        "meta_mean_motion_dot": 9.66e-06,
        "meta_mean_motion_ddot": 0,
        "tle_line1": "1 40715U 15032A   25346.23088475  .00000966  00000+0  11807-3 0  9995",
        "tle_line2": "2 40715  97.6690 213.4419 0004739 323.8597  36.2298 14.85438097562158"
      },
      "geometry": {
        "type": "Point",
        "coordinates": [
          -104.64776876850492,
          -78.54185127823165
        ]
      }
    },
    {
      "type": "Feature",
      "properties": {
        "norad_id": 40716,
        "name": "DMC3-FM2",
        "group": "dmc",
        "lat": 21.340150687210787,
        "lon": 38.150226198095474,
        "alt_km": 615.7763510859468,
        "timestamp": "2025-12-12T11:38:31.082921+00:00",
        "meta_object_name": "DMC3-FM2",
        "meta_object_id": "2015-032B",
        "meta_epoch": "2025-12-12T04:27:52.185024",
        "meta_mean_motion": 14.85439986,
        "meta_eccentricity": 0.0005364,
        "meta_inclination": 97.6745,
        "meta_ra_of_asc_node": 214.8421,
        "meta_arg_of_pericenter": 328.0037,
        "meta_mean_anomaly": 32.0852,
        "meta_ephemeris_type": 0,
        "meta_classification_type": "U",
        "meta_norad_cat_id": 40716,
        "meta_element_set_no": 999,
        "meta_rev_at_epoch": 56214,
        "meta_bstar": 0.0001773,
        "meta_mean_motion_dot": 1.477e-05,
        "meta_mean_motion_ddot": 0,
        "tle_line1": "1 40716U 15032B   25346.18602066  .00001477  00000+0  17730-3 0  9997",
        "tle_line2": "2 40716  97.6745 214.8421 0005364 328.0037  32.0852 14.85439986562146"
      },
      "geometry": {
        "type": "Point",
        "coordinates": [
          38.150226198095474,
          21.340150687210787
        ]
      }
    },
    {
      "type": "Feature",
      "properties": {
        "norad_id": 40717,
        "name": "DMC3-FM3",
        "group": "dmc",
        "lat": 42.31327451002398,
        "lon": -150.29324703880675,
        "alt_km": 607.8446147342966,
        "timestamp": "2025-12-12T11:38:31.082931+00:00",
        "meta_object_name": "DMC3-FM3",
        "meta_object_id": "2015-032C",
        "meta_epoch": "2025-12-12T04:59:00.076128",
        "meta_mean_motion": 14.85431202,
        "meta_eccentricity": 0.0004658,
        "meta_inclination": 97.6801,
        "meta_ra_of_asc_node": 216.4955,
        "meta_arg_of_pericenter": 330.8856,
        "meta_mean_anomaly": 29.2099,
        "meta_ephemeris_type": 0,
        "meta_classification_type": "U",
        "meta_norad_cat_id": 40717,
        "meta_element_set_no": 999,
        "meta_rev_at_epoch": 56215,
        "meta_bstar": 0.00020529,
        "meta_mean_motion_dot": 1.718e-05,
        "meta_mean_motion_ddot": 0,
        "tle_line1": "1 40717U 15032C   25346.20763977  .00001718  00000+0  20529-3 0  9998",
        "tle_line2": "2 40717  97.6801 216.4955 0004658 330.8856  29.2099 14.85431202562150"
      },
      "geometry": {
        "type": "Point",
        "coordinates": [
          -150.29324703880675,
          42.31327451002398
        ]
      }
    }
  ]
}